[{"OBJECT_NAME":"CANX-2","OBJECT_ID":"2008-021H","EPOCH":"2026-03-09T21:45:30.862944","MEAN_MOTION":15.04798248,"ECCENTRICITY":0.00113052,"INCLINATION":97.8556,"RA_OF_ASC_NODE":46.8625,"ARG_OF_PERICENTER":28.5783,"MEAN_ANOMALY":331.606,"EPHEMERIS_TYPE":0,"CLASSIFICATION_TYPE":"U","NORAD_CAT_ID":32790,"ELEMENT_SET_NO":999,"REV_AT_EPOCH":96987,"BSTAR":0.0003958982,"MEAN_MOTION_DOT":5.531e-5,"MEAN_MOTION_DDOT":0},{"OBJECT_NAME":"STARLINK-4436","OBJECT_ID":"2022-099Q","EPOCH":"2026-03-09T21:38:57.471648","MEAN_MOTION":15.05652424,"ECCENTRICITY":6.437e-5,"INCLINATION":97.6029,"RA_OF_ASC_NODE":191.5003,"ARG_OF_PERICENTER":290.9391,"MEAN_ANOMALY":69.1767,"EPHEMERIS_TYPE":0,"CLASSIFICATION_TYPE":"U","NORAD_CAT_ID":53479,"ELEMENT_SET_NO":999,"REV_AT_EPOCH":19608,"BSTAR":6.4351145e-5,"MEAN_MOTION_DOT":8.68e-6,"MEAN_MOTION_DDOT":0}]
